start=new Date('2023-02-06T00:00:00.000Z').valueOf();
sats=[{"MEAN_ELEMENT_THEORY":"SGP4","RCS_SIZE":"LARGE","NORAD_CAT_ID":"46364","PERIOD":"95.593","CLASSIFICATION_TYPE":"U","SITE":"AFETR","LAUNCH_DATE":"2020-09-03","EPOCH":"2023-02-05T05:05:04.459488","APOAPSIS":"548.309","TLE_LINE1":"1 46364U 20062AR  23036.21185717  .00000951  00000-0  82727-4 0  9994","MEAN_MOTION_DOT":"0.00000951","PERIAPSIS":"546.155","MEAN_MOTION":"15.06394054","INCLINATION":"53.0569","COUNTRY_CODE":"US","OBJECT_NAME":"STARLINK-1763","GP_ID":"224492621","OBJECT_TYPE":"PAYLOAD","SEMIMAJOR_AXIS":"6925.367","REF_FRAME":"TEME","RA_OF_ASC_NODE":"338.0575","MEAN_ANOMALY":"261.4187","BSTAR":"0.00008272700000","MEAN_MOTION_DDOT":"0.0000000000000","EPHEMERIS_TYPE":"0","DECAY_DATE":null,"OBJECT_ID":"2020-062AR","REV_AT_EPOCH":"13512","ECCENTRICITY":"0.00015550","ELEMENT_SET_NO":"999","TIME_SYSTEM":"UTC","TLE_LINE2":"2 46364  53.0569 338.0575 0001555  98.6978 261.4187 15.06394054135125","CENTER_NAME":"EARTH","FILE":"3773728","ARG_OF_PERICENTER":"98.6978"},{"ARG_OF_PERICENTER":"92.4677","CENTER_NAME":"EARTH","FILE":"3774172","TLE_LINE2":"2 46365  53.0550 354.3879 0001763  92.4677 267.6514 15.06394311134951","TIME_SYSTEM":"UTC","ELEMENT_SET_NO":"999","ECCENTRICITY":"0.00017630","REV_AT_EPOCH":"13495","DECAY_DATE":null,"OBJECT_ID":"2020-062AS","EPHEMERIS_TYPE":"0","MEAN_MOTION_DDOT":"0.0000000000000","BSTAR":"-0.00004128100000","MEAN_ANOMALY":"267.6514","REF_FRAME":"TEME","RA_OF_ASC_NODE":"354.3879","SEMIMAJOR_AXIS":"6925.366","OBJECT_TYPE":"PAYLOAD","GP_ID":"224554522","OBJECT_NAME":"STARLINK-1550","COUNTRY_CODE":"US","INCLINATION":"53.0550","MEAN_MOTION":"15.06394311","PERIAPSIS":"546.010","MEAN_MOTION_DOT":"-0.00000896","TLE_LINE1":"1 46365U 20062AS  23036.91764950 -.00000896  00000-0 -41281-4 0  9994","APOAPSIS":"548.452","EPOCH":"2023-02-05T22:01:24.916800","LAUNCH_DATE":"2020-09-03","SITE":"AFETR","CLASSIFICATION_TYPE":"U","PERIOD":"95.593","NORAD_CAT_ID":"46365","RCS_SIZE":"LARGE","MEAN_ELEMENT_THEORY":"SGP4"},{"PERIOD":"95.593","NORAD_CAT_ID":"46366","RCS_SIZE":"LARGE","MEAN_ELEMENT_THEORY":"SGP4","CLASSIFICATION_TYPE":"U","MEAN_MOTION_DOT":"-0.00000408","TLE_LINE1":"1 46366U 20062AT  23036.90659698 -.00000408  00000-0 -85056-5 0  9994","APOAPSIS":"548.220","EPOCH":"2023-02-05T21:45:29.979072","LAUNCH_DATE":"2020-09-03","SITE":"AFETR","GP_ID":"224554273","OBJECT_NAME":"STARLINK-1651","COUNTRY_CODE":"US","INCLINATION":"53.0531","MEAN_MOTION":"15.06394163","PERIAPSIS":"546.243","MEAN_MOTION_DDOT":"0.0000000000000","BSTAR":"-0.00000850560000","MEAN_ANOMALY":"263.3264","REF_FRAME":"TEME","RA_OF_ASC_NODE":"354.4418","SEMIMAJOR_AXIS":"6925.366","OBJECT_TYPE":"PAYLOAD","TIME_SYSTEM":"UTC","ELEMENT_SET_NO":"999","ECCENTRICITY":"0.00014280","REV_AT_EPOCH":"13495","DECAY_DATE":null,"OBJECT_ID":"2020-062AT","EPHEMERIS_TYPE":"0","FILE":"3774172","CENTER_NAME":"EARTH","TLE_LINE2":"2 46366  53.0531 354.4418 0001428  96.7888 263.3264 15.06394163134950","ARG_OF_PERICENTER":"96.7888"},{"ARG_OF_PERICENTER":"95.3816","FILE":"3773728","CENTER_NAME":"EARTH","TLE_LINE2":"2 46368  53.0562  22.3994 0001367  95.3816 264.7329 15.06399396134516","ELEMENT_SET_NO":"999","ECCENTRICITY":"0.00013670","TIME_SYSTEM":"UTC","DECAY_DATE":null,"OBJECT_ID":"2020-062AV","EPHEMERIS_TYPE":"0","REV_AT_EPOCH":"13451","MEAN_ANOMALY":"264.7329","MEAN_MOTION_DDOT":"0.0000000000000","BSTAR":"0.00005029400000","SEMIMAJOR_AXIS":"6925.350","OBJECT_TYPE":"PAYLOAD","REF_FRAME":"TEME","RA_OF_ASC_NODE":"22.3994","COUNTRY_CODE":"US","GP_ID":"224492380","OBJECT_NAME":"STARLINK-1658","INCLINATION":"53.0562","PERIAPSIS":"546.269","MEAN_MOTION":"15.06399396","APOAPSIS":"548.162","EPOCH":"2023-02-05T05:48:04.500864","MEAN_MOTION_DOT":"0.00000468","TLE_LINE1":"1 46368U 20062AV  23036.24171876  .00000468  00000-0  50294-4 0  9999","SITE":"AFETR","LAUNCH_DATE":"2020-09-03","CLASSIFICATION_TYPE":"U","NORAD_CAT_ID":"46368","PERIOD":"95.592","MEAN_ELEMENT_THEORY":"SGP4","RCS_SIZE":"LARGE"},{"ARG_OF_PERICENTER":"97.9303","TLE_LINE2":"2 46370  53.0559  21.6830 0001291  97.9303 262.1833 15.06411191134533","FILE":"3773728","CENTER_NAME":"EARTH","REV_AT_EPOCH":"13453","DECAY_DATE":null,"OBJECT_ID":"2020-062AX","EPHEMERIS_TYPE":"0","TIME_SYSTEM":"UTC","ELEMENT_SET_NO":"999","ECCENTRICITY":"0.00012910","REF_FRAME":"TEME","RA_OF_ASC_NODE":"21.6830","SEMIMAJOR_AXIS":"6925.314","OBJECT_TYPE":"PAYLOAD","MEAN_MOTION_DDOT":"0.0000000000000","BSTAR":"0.00013456000000","MEAN_ANOMALY":"262.1833","INCLINATION":"53.0559","MEAN_MOTION":"15.06411191","PERIAPSIS":"546.285","GP_ID":"224492123","OBJECT_NAME":"STARLINK-1670","COUNTRY_CODE":"US","LAUNCH_DATE":"2020-09-03","SITE":"AFETR","MEAN_MOTION_DOT":"0.00001724","TLE_LINE1":"1 46370U 20062AX  23036.40483523  .00001724  00000-0  13456-3 0  9999","APOAPSIS":"548.073","EPOCH":"2023-02-05T09:42:57.763872","CLASSIFICATION_TYPE":"U","RCS_SIZE":"LARGE","MEAN_ELEMENT_THEORY":"SGP4","PERIOD":"95.591","NORAD_CAT_ID":"46370"},{"ARG_OF_PERICENTER":"94.2022","CENTER_NAME":"EARTH","FILE":"3774172","TLE_LINE2":"2 46371  53.0535  19.6421 0001231  94.2022 265.9107 15.06396035134605","TIME_SYSTEM":"UTC","ELEMENT_SET_NO":"999","ECCENTRICITY":"0.00012310","REV_AT_EPOCH":"13460","DECAY_DATE":null,"OBJECT_ID":"2020-062AY","EPHEMERIS_TYPE":"0","MEAN_MOTION_DDOT":"0.0000000000000","BSTAR":"0.00013269000000","MEAN_ANOMALY":"265.9107","REF_FRAME":"TEME","RA_OF_ASC_NODE":"19.6421","OBJECT_TYPE":"PAYLOAD","SEMIMAJOR_AXIS":"6925.361","GP_ID":"224554024","OBJECT_NAME":"STARLINK-1688","COUNTRY_CODE":"US","INCLINATION":"53.0535","MEAN_MOTION":"15.06396035","PERIAPSIS":"546.373","MEAN_MOTION_DOT":"0.00001695","TLE_LINE1":"1 46371U 20062AY  23036.86190518  .00001695  00000-0  13269-3 0  9998","APOAPSIS":"548.078","EPOCH":"2023-02-05T20:41:08.607552","LAUNCH_DATE":"2020-09-03","SITE":"AFETR","CLASSIFICATION_TYPE":"U","PERIOD":"95.592","NORAD_CAT_ID":"46371","RCS_SIZE":"LARGE","MEAN_ELEMENT_THEORY":"SGP4"},{"COUNTRY_CODE":"US","OBJECT_NAME":"STARLINK-1689","GP_ID":"224554773","MEAN_MOTION":"15.06396669","PERIAPSIS":"546.280","INCLINATION":"53.0561","EPOCH":"2023-02-05T17:43:19.887168","APOAPSIS":"548.168","TLE_LINE1":"1 46372U 20062AZ  23036.73842462  .00000048  00000-0  22104-4 0  9997","MEAN_MOTION_DOT":"0.00000048","SITE":"AFETR","LAUNCH_DATE":"2020-09-03","CLASSIFICATION_TYPE":"U","NORAD_CAT_ID":"46372","PERIOD":"95.592","MEAN_ELEMENT_THEORY":"SGP4","RCS_SIZE":"LARGE","ARG_OF_PERICENTER":"93.1840","FILE":"3774172","CENTER_NAME":"EARTH","TLE_LINE2":"2 46372  53.0561  40.1903 0001363  93.1840 266.9305 15.06396669134302","ECCENTRICITY":"0.00013630","ELEMENT_SET_NO":"999","TIME_SYSTEM":"UTC","EPHEMERIS_TYPE":"0","DECAY_DATE":null,"OBJECT_ID":"2020-062AZ","REV_AT_EPOCH":"13430","MEAN_ANOMALY":"266.9305","BSTAR":"0.00002210400000","MEAN_MOTION_DDOT":"0.0000000000000","SEMIMAJOR_AXIS":"6925.359","OBJECT_TYPE":"PAYLOAD","REF_FRAME":"TEME","RA_OF_ASC_NODE":"40.1903"},{"TLE_LINE2":"2 46374  53.0556 332.3307 0001350  86.8501 273.2642 15.05575830135204","CENTER_NAME":"EARTH","FILE":"3773728","ARG_OF_PERICENTER":"86.8501","RA_OF_ASC_NODE":"332.3307","REF_FRAME":"TEME","SEMIMAJOR_AXIS":"6927.876","OBJECT_TYPE":"PAYLOAD","BSTAR":"0.00009636200000","MEAN_MOTION_DDOT":"0.0000000000000","MEAN_ANOMALY":"273.2642","REV_AT_EPOCH":"13520","EPHEMERIS_TYPE":"0","DECAY_DATE":null,"OBJECT_ID":"2020-062BB","TIME_SYSTEM":"UTC","ECCENTRICITY":"0.00013500","ELEMENT_SET_NO":"999","LAUNCH_DATE":"2020-09-03","SITE":"AFETR","TLE_LINE1":"1 46374U 20062BB  23036.19227313  .00001125  00000-0  96362-4 0  9995","MEAN_MOTION_DOT":"0.00001125","EPOCH":"2023-02-05T04:36:52.398432","APOAPSIS":"550.676","PERIAPSIS":"548.805","MEAN_MOTION":"15.05575830","INCLINATION":"53.0556","OBJECT_NAME":"STARLINK-1711","GP_ID":"224491881","COUNTRY_CODE":"US","RCS_SIZE":"LARGE","MEAN_ELEMENT_THEORY":"SGP4","PERIOD":"95.644","NORAD_CAT_ID":"46374","CLASSIFICATION_TYPE":"U"},{"TLE_LINE2":"2 46375  53.0559 354.4589 0001360 106.9672 253.1466 15.06397633134955","CENTER_NAME":"EARTH","FILE":"3774172","ARG_OF_PERICENTER":"106.9672","OBJECT_TYPE":"PAYLOAD","SEMIMAJOR_AXIS":"6925.356","RA_OF_ASC_NODE":"354.4589","REF_FRAME":"TEME","MEAN_ANOMALY":"253.1466","BSTAR":"0.00005867900000","MEAN_MOTION_DDOT":"0.0000000000000","EPHEMERIS_TYPE":"0","DECAY_DATE":null,"OBJECT_ID":"2020-062BC","REV_AT_EPOCH":"13495","ECCENTRICITY":"0.00013600","ELEMENT_SET_NO":"999","TIME_SYSTEM":"UTC","SITE":"AFETR","LAUNCH_DATE":"2020-09-03","EPOCH":"2023-02-05T21:34:52.789440","APOAPSIS":"548.163","TLE_LINE1":"1 46375U 20062BC  23036.89922210  .00000593  00000-0  58679-4 0  9998","MEAN_MOTION_DOT":"0.00000593","MEAN_MOTION":"15.06397633","PERIAPSIS":"546.279","INCLINATION":"53.0559","COUNTRY_CODE":"US","OBJECT_NAME":"STARLINK-1724","GP_ID":"224555760","MEAN_ELEMENT_THEORY":"SGP4","RCS_SIZE":"LARGE","NORAD_CAT_ID":"46375","PERIOD":"95.592","CLASSIFICATION_TYPE":"U"},{"CLASSIFICATION_TYPE":"U","NORAD_CAT_ID":"46376","PERIOD":"95.592","MEAN_ELEMENT_THEORY":"SGP4","RCS_SIZE":"LARGE","COUNTRY_CODE":"US","GP_ID":"224554523","OBJECT_NAME":"STARLINK-1742","INCLINATION":"53.0539","PERIAPSIS":"545.904","MEAN_MOTION":"15.06398971","APOAPSIS":"548.530","EPOCH":"2023-02-05T21:56:06.604512","MEAN_MOTION_DOT":"0.00002635","TLE_LINE1":"1 46376U 20062BD  23036.91396533  .00002635  00000-0  19573-3 0  9993","SITE":"AFETR","LAUNCH_DATE":"2020-09-03","ELEMENT_SET_NO":"999","ECCENTRICITY":"0.00018960","TIME_SYSTEM":"UTC","DECAY_DATE":null,"OBJECT_ID":"2020-062BD","EPHEMERIS_TYPE":"0","REV_AT_EPOCH":"13495","MEAN_ANOMALY":"259.0769","MEAN_MOTION_DDOT":"0.0000000000000","BSTAR":"0.00019573000000","SEMIMAJOR_AXIS":"6925.352","OBJECT_TYPE":"PAYLOAD","RA_OF_ASC_NODE":"354.4055","REF_FRAME":"TEME","ARG_OF_PERICENTER":"101.0433","CENTER_NAME":"EARTH","FILE":"3774172","TLE_LINE2":"2 46376  53.0539 354.4055 0001896 101.0433 259.0769 15.06398971134954"}];
